SENTINEL-6              
1 46984U 20086A   23283.68597866 -.00000054  00000+0  31616-4 0  9990
2 46984  66.0447  11.5631 0007869 268.0365  91.9749 12.80930076134875
